{
    "links": {
        "self": "http://www.neowsapp.com/rest/v1/neo/54076020?api_key=iIulBulltgU6a56xZRHN4H3l9WmuAYTsLGpBGhQ2"
    },
    "id": "54076020",
    "neo_reference_id": "54076020",
    "name": "(2020 UM4)",
    "designation": "2020 UM4",
    "nasa_jpl_url": "http://ssd.jpl.nasa.gov/sbdb.cgi?sstr=54076020",
    "absolute_magnitude_h": 22.774,
    "estimated_diameter": {
        "kilometers": {
            "estimated_diameter_min": 0.0740892122,
            "estimated_diameter_max": 0.1656685148
        },
        "meters": {
            "estimated_diameter_min": 74.0892121502,
            "estimated_diameter_max": 165.6685147673
        },
        "miles": {
            "estimated_diameter_min": 0.0460368878,
            "estimated_diameter_max": 0.1029416107
        },
        "feet": {
            "estimated_diameter_min": 243.0748507909,
            "estimated_diameter_max": 543.531889989
        }
    },
    "is_potentially_hazardous_asteroid": false,
    "close_approach_data": [
        {
            "close_approach_date": "1942-10-11",
            "close_approach_date_full": "1942-Oct-11 06:16",
            "epoch_date_close_approach": -859139040000,
            "relative_velocity": {
                "kilometers_per_second": "16.8773188021",
                "kilometers_per_hour": "60758.3476877069",
                "miles_per_hour": "37752.8744285088"
            },
            "miss_distance": {
                "astronomical": "0.2124677677",
                "lunar": "82.6499616353",
                "kilometers": "31784725.491574799",
                "miles": "19750112.5955742662"
            },
            "orbiting_body": "Earth"
        },
        {
            "close_approach_date": "2020-10-22",
            "close_approach_date_full": "2020-Oct-22 09:59",
            "epoch_date_close_approach": 1603360740000,
            "relative_velocity": {
                "kilometers_per_second": "17.2987480702",
                "kilometers_per_hour": "62275.4930525933",
                "miles_per_hour": "38695.5695581516"
            },
            "miss_distance": {
                "astronomical": "0.0477867887",
                "lunar": "18.5890608043",
                "kilometers": "7148801.803660069",
                "miles": "4442059.4597601922"
            },
            "orbiting_body": "Earth"
        },
        {
            "close_approach_date": "2031-10-04",
            "close_approach_date_full": "2031-Oct-04 02:26",
            "epoch_date_close_approach": 1948847160000,
            "relative_velocity": {
                "kilometers_per_second": "18.214135985",
                "kilometers_per_hour": "65570.8895458902",
                "miles_per_hour": "40743.2007847783"
            },
            "miss_distance": {
                "astronomical": "0.370678483",
                "lunar": "144.193929887",
                "kilometers": "55452711.51163121",
                "miles": "34456717.154122298"
            },
            "orbiting_body": "Earth"
        },
        {
            "close_approach_date": "2034-11-07",
            "close_approach_date_full": "2034-Nov-07 18:57",
            "epoch_date_close_approach": 2046538620000,
            "relative_velocity": {
                "kilometers_per_second": "22.5217844782",
                "kilometers_per_hour": "81078.424121498",
                "miles_per_hour": "50378.9796992719"
            },
            "miss_distance": {
                "astronomical": "0.4069914543",
                "lunar": "158.3196757227",
                "kilometers": "60885054.671482341",
                "miles": "37832218.6695686658"
            },
            "orbiting_body": "Earth"
        }
    ],
    "orbital_data": {
        "orbit_id": "8",
        "orbit_determination_date": "2020-11-26 05:21:06",
        "first_observation_date": "2020-10-22",
        "last_observation_date": "2020-11-26",
        "data_arc_in_days": 35,
        "observations_used": 89,
        "orbit_uncertainty": "7",
        "minimum_orbit_intersection": ".022072",
        "jupiter_tisserand_invariant": "4.715",
        "epoch_osculation": "2459000.5",
        "eccentricity": ".2575431467127983",
        "semi_major_axis": "1.345534453706379",
        "inclination": "30.40524566160776",
        "ascending_node_longitude": "207.7280443287101",
        "orbital_period": "570.0863743268056",
        "perihelion_distance": ".999001276488352",
        "perihelion_argument": "155.7732045269629",
        "aphelion_distance": "1.692067630924406",
        "perihelion_time": "2459123.781603277100",
        "mean_anomaly": "282.1497317276448",
        "mean_motion": ".6314832562436016",
        "equinox": "J2000",
        "orbit_class": {
            "orbit_class_type": "APO",
            "orbit_class_description": "Near-Earth asteroid orbits which cross the Earth’s orbit similar to that of 1862 Apollo",
            "orbit_class_range": "a (semi-major axis) > 1.0 AU; q (perihelion) < 1.017 AU"
        }
    },
    "is_sentry_object": false
}